{"type": "FeatureCollection", "features": [ {"type": "Feature", "properties": {"norad_id": 29795, "name": "FENGYUN 1C DEB", "group": "fengyun-1c-debris", "lat": -71.12313714792698, "lon": 137.20599079731073, "alt_km": 845.2541995025449, "timestamp": "2025-12-06T09:34:17.185117+00:00", "meta": {"OBJECT_NAME": "FENGYUN 1C DEB", "OBJECT_ID": "1999-025CM", "EPOCH": "2025-12-04T08:13:39.609120", "MEAN_MOTION": 13.92903153, "ECCENTRICITY": 0.0111087, "INCLINATION": 98.87, "RA_OF_ASC_NODE": 108.0617, "ARG_OF_PERICENTER": 299.4355, "MEAN_ANOMALY": 123.4514, "EPHEMERIS_TYPE": 0, "CLASSIFICATION_TYPE": "U", "NORAD_CAT_ID": 29795, "ELEMENT_SET_NO": 999, "REV_AT_EPOCH": 95948, "BSTAR": 0.00021925, "MEAN_MOTION_DOT": 2.56e-06, "MEAN_MOTION_DDOT": 0}, "tle": {"line1": "1 29795U 99025CM  25338.34281955  .00000256  00000+0  21925-3 0  9999", "line2": "2 29795  98.8700 108.0617 0111087 299.4355 123.4514 13.92903153959485"}}, "geometry": {"type": "Point", "coordinates": [137.20599079731073, -71.12313714792698]}}, {"type": "Feature", "properties": {"norad_id": 29796, "name": "FENGYUN 1C DEB", "group": "fengyun-1c-debris", "lat": -7.281320036257481, "lon": -148.8021963052939, "alt_km": 860.851997729912, "timestamp": "2025-12-06T09:34:17.185127+00:00", "meta": {"OBJECT_NAME": "FENGYUN 1C DEB", "OBJECT_ID": "1999-025CN", "EPOCH": "2025-12-05T21:37:37.309728", "MEAN_MOTION": 14.12311175, "ECCENTRICITY": 0.00516594, "INCLINATION": 98.8655, "RA_OF_ASC_NODE": 31.8483, "ARG_OF_PERICENTER": 287.5548, "MEAN_ANOMALY": 251.3064, "EPHEMERIS_TYPE": 0, "CLASSIFICATION_TYPE": "U", "NORAD_CAT_ID": 29796, "ELEMENT_SET_NO": 999, "REV_AT_EPOCH": 96964, "BSTAR": 0.0010887701, "MEAN_MOTION_DOT": 1.986e-05, "MEAN_MOTION_DDOT": 0}, "tle": {"line1": "1 29796U 99025CN  25339.90112627  .00001986  00000+0  10888-2 0  9998", "line2": "2 29796  98.8655  31.8483 0051659 287.5548 251.3064 14.12311175969649"}}, "geometry": {"type": "Point", "coordinates": [-148.8021963052939, -7.281320036257481]}}, {"type": "Feature", "properties": {"norad_id": 29798, "name": "FENGYUN 1C DEB", "group": "fengyun-1c-debris", "lat": 58.824241626561175, "lon": -120.08668863739608, "alt_km": 969.4056265323325, "timestamp": "2025-12-06T09:34:17.185137+00:00", "meta": {"OBJECT_NAME": "FENGYUN 1C DEB", "OBJECT_ID": "1999-025CQ", "EPOCH": "2025-12-05T18:08:19.906944", "MEAN_MOTION": 13.99526762, "ECCENTRICITY": 0.01113345, "INCLINATION": 99.2958, "RA_OF_ASC_NODE": 43.5549, "ARG_OF_PERICENTER": 291.5965, "MEAN_ANOMALY": 190.4723, "EPHEMERIS_TYPE": 0, "CLASSIFICATION_TYPE": "U", "NORAD_CAT_ID": 29798, "ELEMENT_SET_NO": 999, "REV_AT_EPOCH": 95827, "BSTAR": 0.0023548496, "MEAN_MOTION_DOT": 3.577e-05, "MEAN_MOTION_DDOT": 0}, "tle": {"line1": "1 29798U 99025CQ  25339.75578596  .00003577  00000+0  23548-2 0  9999", "line2": "2 29798  99.2958  43.5549 0111334 291.5965 190.4723 13.99526762958276"}}, "geometry": {"type": "Point", "coordinates": [-120.08668863739608, 58.824241626561175]}}, {"type": "Feature", "properties": {"norad_id": 29800, "name": "FENGYUN 1C DEB", "group": "fengyun-1c-debris", "lat": -46.75284594404768, "lon": 11.531501277321835, "alt_km": 867.6790783117704, "timestamp": "2025-12-06T09:34:17.185147+00:00", "meta": {"OBJECT_NAME": "FENGYUN 1C DEB", "OBJECT_ID": "1999-025CS", "EPOCH": "2025-12-05T13:58:13.821024", "MEAN_MOTION": 13.98505687, "ECCENTRICITY": 0.01332695, "INCLINATION": 98.2902, "RA_OF_ASC_NODE": 1.8756, "ARG_OF_PERICENTER": 247.3523, "MEAN_ANOMALY": 274.4096, "EPHEMERIS_TYPE": 0, "CLASSIFICATION_TYPE": "U", "NORAD_CAT_ID": 29800, "ELEMENT_SET_NO": 999, "REV_AT_EPOCH": 95476, "BSTAR": 0.0030193564, "MEAN_MOTION_DOT": 4.629e-05, "MEAN_MOTION_DDOT": 0}, "tle": {"line1": "1 29800U 99025CS  25339.58210441  .00004629  00000+0  30194-2 0  9990", "line2": "2 29800  98.2902   1.8756 0133269 247.3523 274.4096 13.98505687954763"}}, "geometry": {"type": "Point", "coordinates": [11.531501277321835, -46.75284594404768]}}, {"type": "Feature", "properties": {"norad_id": 29801, "name": "FENGYUN 1C DEB", "group": "fengyun-1c-debris", "lat": 73.30486674349625, "lon": 92.37057125209529, "alt_km": 838.6662174099984, "timestamp": "2025-12-06T09:34:17.185157+00:00", "meta": {"OBJECT_NAME": "FENGYUN 1C DEB", "OBJECT_ID": "1999-025CT", "EPOCH": "2025-12-05T23:05:56.213952", "MEAN_MOTION": 14.35883435, "ECCENTRICITY": 0.01029719, "INCLINATION": 98.7949, "RA_OF_ASC_NODE": 240.8484, "ARG_OF_PERICENTER": 287.5784, "MEAN_ANOMALY": 82.2907, "EPHEMERIS_TYPE": 0, "CLASSIFICATION_TYPE": "U", "NORAD_CAT_ID": 29801, "ELEMENT_SET_NO": 999, "REV_AT_EPOCH": 98844, "BSTAR": 0.00036844361, "MEAN_MOTION_DOT": 1.085e-05, "MEAN_MOTION_DDOT": 0}, "tle": {"line1": "1 29801U 99025CT  25339.96245618  .00001085  00000+0  36844-3 0  9999", "line2": "2 29801  98.7949 240.8484 0102971 287.5784  82.2907 14.35883435988444"}}, "geometry": {"type": "Point", "coordinates": [92.37057125209529, 73.30486674349625]}}, {"type": "Feature", "properties": {"norad_id": 29802, "name": "FENGYUN 1C DEB", "group": "fengyun-1c-debris", "lat": -26.722913964821323, "lon": -95.13932178536388, "alt_km": 715.1592006721839, "timestamp": "2025-12-06T09:34:17.185167+00:00", "meta": {"OBJECT_NAME": "FENGYUN 1C DEB", "OBJECT_ID": "1999-025CU", "EPOCH": "2025-12-05T20:02:58.167744", "MEAN_MOTION": 14.62035616, "ECCENTRICITY": 0.00369912, "INCLINATION": 98.6202, "RA_OF_ASC_NODE": 88.6533, "ARG_OF_PERICENTER": 0.1068, "MEAN_ANOMALY": 123.3164, "EPHEMERIS_TYPE": 0, "CLASSIFICATION_TYPE": "U", "NORAD_CAT_ID": 29802, "ELEMENT_SET_NO": 999, "REV_AT_EPOCH": 98372, "BSTAR": 0.0048088578, "MEAN_MOTION_DOT": 0.00024395, "MEAN_MOTION_DDOT": 0}, "tle": {"line1": "1 29802U 99025CU  25339.83539546  .00024395  00000+0  48089-2 0  9994", "line2": "2 29802  98.6202  88.6533 0036991   0.1068 123.3164 14.62035616983729"}}, "geometry": {"type": "Point", "coordinates": [-95.13932178536388, -26.722913964821323]}}, {"type": "Feature", "properties": {"norad_id": 29804, "name": "FENGYUN 1C DEB", "group": "fengyun-1c-debris", "lat": 56.45589714484961, "lon": -24.71975677639385, "alt_km": 882.4330828852753, "timestamp": "2025-12-06T09:34:17.185177+00:00", "meta": {"OBJECT_NAME": "FENGYUN 1C DEB", "OBJECT_ID": "1999-025CW", "EPOCH": "2025-12-05T23:19:38.424864", "MEAN_MOTION": 14.04317486, "ECCENTRICITY": 0.0097467, "INCLINATION": 98.8056, "RA_OF_ASC_NODE": 348.3871, "ARG_OF_PERICENTER": 320.8905, "MEAN_ANOMALY": 98.8611, "EPHEMERIS_TYPE": 0, "CLASSIFICATION_TYPE": "U", "NORAD_CAT_ID": 29804, "ELEMENT_SET_NO": 999, "REV_AT_EPOCH": 96799, "BSTAR": 0.00026797291, "MEAN_MOTION_DOT": 4.01e-06, "MEAN_MOTION_DDOT": 0}, "tle": {"line1": "1 29804U 99025CW  25339.97197251  .00000401  00000+0  26797-3 0  9999", "line2": "2 29804  98.8056 348.3871 0097467 320.8905  98.8611 14.04317486967996"}}, "geometry": {"type": "Point", "coordinates": [-24.71975677639385, 56.45589714484961]}}, {"type": "Feature", "properties": {"norad_id": 29805, "name": "FENGYUN 1C DEB", "group": "fengyun-1c-debris", "lat": -37.93893504099976, "lon": -155.71422688485836, "alt_km": 873.465081700967, "timestamp": "2025-12-06T09:34:17.185187+00:00", "meta": {"OBJECT_NAME": "FENGYUN 1C DEB", "OBJECT_ID": "1999-025CX", "EPOCH": "2025-12-05T15:00:08.055936", "MEAN_MOTION": 13.72653089, "ECCENTRICITY": 0.01877603, "INCLINATION": 99.456, "RA_OF_ASC_NODE": 30.9869, "ARG_OF_PERICENTER": 248.3294, "MEAN_ANOMALY": 109.7767, "EPHEMERIS_TYPE": 0, "CLASSIFICATION_TYPE": "U", "NORAD_CAT_ID": 29805, "ELEMENT_SET_NO": 999, "REV_AT_EPOCH": 94605, "BSTAR": 0.00029221238, "MEAN_MOTION_DOT": 2.59e-06, "MEAN_MOTION_DDOT": 0}, "tle": {"line1": "1 29805U 99025CX  25339.62509324  .00000259  00000+0  29221-3 0  9996", "line2": "2 29805  99.4560  30.9869 0187760 248.3294 109.7767 13.72653089946050"}}, "geometry": {"type": "Point", "coordinates": [-155.71422688485836, -37.93893504099976]}}, {"type": "Feature", "properties": {"norad_id": 29806, "name": "FENGYUN 1C DEB", "group": "fengyun-1c-debris", "lat": -67.87612272016523, "lon": 154.20770891958688, "alt_km": 841.256235665539, "timestamp": "2025-12-06T09:34:17.185197+00:00", "meta": {"OBJECT_NAME": "FENGYUN 1C DEB", "OBJECT_ID": "1999-025CY", "EPOCH": "2025-12-05T19:38:10.299264", "MEAN_MOTION": 14.11985938, "ECCENTRICITY": 0.00274634, "INCLINATION": 98.7131, "RA_OF_ASC_NODE": 355.8046, "ARG_OF_PERICENTER": 272.1944, "MEAN_ANOMALY": 267.6528, "EPHEMERIS_TYPE": 0, "CLASSIFICATION_TYPE": "U", "NORAD_CAT_ID": 29806, "ELEMENT_SET_NO": 999, "REV_AT_EPOCH": 97041, "BSTAR": 0.00087803269, "MEAN_MOTION_DOT": 1.569e-05, "MEAN_MOTION_DDOT": 0}, "tle": {"line1": "1 29806U 99025CY  25339.81817476  .00001569  00000+0  87803-3 0  9993", "line2": "2 29806  98.7131 355.8046 0027463 272.1944 267.6528 14.11985938970414"}}, "geometry": {"type": "Point", "coordinates": [154.20770891958688, -67.87612272016523]}}, {"type": "Feature", "properties": {"norad_id": 29807, "name": "FENGYUN 1C DEB", "group": "fengyun-1c-debris", "lat": 29.557496864965508, "lon": -19.809517716378195, "alt_km": 818.03758353789, "timestamp": "2025-12-06T09:34:17.185207+00:00", "meta": {"OBJECT_NAME": "FENGYUN 1C DEB", "OBJECT_ID": "1999-025CZ", "EPOCH": "2025-12-05T23:12:12.956832", "MEAN_MOTION": 14.08647473, "ECCENTRICITY": 0.00798654, "INCLINATION": 98.7547, "RA_OF_ASC_NODE": 344.7844, "ARG_OF_PERICENTER": 351.1436, "MEAN_ANOMALY": 8.8321, "EPHEMERIS_TYPE": 0, "CLASSIFICATION_TYPE": "U", "NORAD_CAT_ID": 29807, "ELEMENT_SET_NO": 999, "REV_AT_EPOCH": 96999, "BSTAR": 0.00043780825, "MEAN_MOTION_DOT": 7.33e-06, "MEAN_MOTION_DDOT": 0}, "tle": {"line1": "1 29807U 99025CZ  25339.96681663  .00000733  00000+0  43781-3 0  9996", "line2": "2 29807  98.7547 344.7844 0079865 351.1436   8.8321 14.08647473969998"}}, "geometry": {"type": "Point", "coordinates": [-19.809517716378195, 29.557496864965508]}}]}